STARLINK-33759          
1 64007U 25101P   26068.13926538  .00039010  00000+0  14196-2 0  9990
2 64007  43.0030   0.8461 0001928 252.9816 107.0825 15.27581600 46975
2025-313BD              
1 67299U 25313BD  26068.62968741  .00081010  00000+0  27634-2 0  9995
2 67299  97.3970 145.2850 0007287 333.4514  26.6352 15.30002360 10838
